{"type": "FeatureCollection", "features": [ {"type": "Feature", "properties": {"norad_id": 66623, "name": "STARLINK-35920", "group": "last-30-days", "lat": -44.68770206200744, "lon": 102.64218780388903, "alt_km": 452.3920591179922, "timestamp": "2025-12-20T11:30:27.104050+00:00", "meta": {"OBJECT_NAME": "STARLINK-35920", "OBJECT_ID": "2025-271G", "EPOCH": "2025-12-20T00:00:02.000160", "MEAN_MOTION": 15.39609547, "ECCENTRICITY": 0.0001114, "INCLINATION": 53.1601, "RA_OF_ASC_NODE": 152.7686, "ARG_OF_PERICENTER": 79.6665, "MEAN_ANOMALY": 79.9296, "EPHEMERIS_TYPE": 0, "CLASSIFICATION_TYPE": "U", "NORAD_CAT_ID": 66623, "ELEMENT_SET_NO": 999, "REV_AT_EPOCH": 541, "BSTAR": 0.00041204, "MEAN_MOTION_DOT": 0.00016111, "MEAN_MOTION_DDOT": 0}, "tle": {"line1": "1 66623U 25271G   25354.00002315  .00016111  00000+0  41204-3 0  9993", "line2": "2 66623  53.1601 152.7686 0001114  79.6665  79.9296 15.39609547  5413"}}, "geometry": {"type": "Point", "coordinates": [102.64218780388903, -44.68770206200744]}}, {"type": "Feature", "properties": {"norad_id": 66624, "name": "STARLINK-35927", "group": "last-30-days", "lat": 52.5817221161393, "lon": -131.26172218358545, "alt_km": 420.5798799402719, "timestamp": "2025-12-20T11:30:27.104061+00:00", "meta": {"OBJECT_NAME": "STARLINK-35927", "OBJECT_ID": "2025-271H", "EPOCH": "2025-12-19T22:44:25.582848", "MEAN_MOTION": 15.46532201, "ECCENTRICITY": 8.49e-05, "INCLINATION": 53.159, "RA_OF_ASC_NODE": 152.7553, "ARG_OF_PERICENTER": 106.2501, "MEAN_ANOMALY": 253.86, "EPHEMERIS_TYPE": 0, "CLASSIFICATION_TYPE": "U", "NORAD_CAT_ID": 66624, "ELEMENT_SET_NO": 999, "REV_AT_EPOCH": 532, "BSTAR": -0.0084107, "MEAN_MOTION_DOT": -0.00403682, "MEAN_MOTION_DDOT": 0}, "tle": {"line1": "1 66624U 25271H   25353.94751832 -.00403682  00000+0 -84107-2 0  9994", "line2": "2 66624  53.1590 152.7553 0000849 106.2501 253.8600 15.46532201  5326"}}, "geometry": {"type": "Point", "coordinates": [-131.26172218358545, 52.5817221161393]}}, {"type": "Feature", "properties": {"norad_id": 66625, "name": "STARLINK-35929", "group": "last-30-days", "lat": 32.01538292038791, "lon": 178.25866190782344, "alt_km": 442.953791432923, "timestamp": "2025-12-20T11:30:27.104071+00:00", "meta": {"OBJECT_NAME": "STARLINK-35929", "OBJECT_ID": "2025-271J", "EPOCH": "2025-12-20T04:00:00.999072", "MEAN_MOTION": 15.396071, "ECCENTRICITY": 7.49e-05, "INCLINATION": 53.1589, "RA_OF_ASC_NODE": 151.7783, "ARG_OF_PERICENTER": 89.9632, "MEAN_ANOMALY": 16.8991, "EPHEMERIS_TYPE": 0, "CLASSIFICATION_TYPE": "U", "NORAD_CAT_ID": 66625, "ELEMENT_SET_NO": 999, "REV_AT_EPOCH": 543, "BSTAR": 0.0002241, "MEAN_MOTION_DOT": 8.571e-05, "MEAN_MOTION_DDOT": 0}, "tle": {"line1": "1 66625U 25271J   25354.16667823  .00008571  00000+0  22410-3 0  9992", "line2": "2 66625  53.1589 151.7783 0000749  89.9632  16.8991 15.39607100  5435"}}, "geometry": {"type": "Point", "coordinates": [178.25866190782344, 32.01538292038791]}}, {"type": "Feature", "properties": {"norad_id": 66626, "name": "STARLINK-35902", "group": "last-30-days", "lat": -27.896245147847186, "lon": 127.07347613261078, "alt_km": 451.3445778832411, "timestamp": "2025-12-20T11:30:27.104082+00:00", "meta": {"OBJECT_NAME": "STARLINK-35902", "OBJECT_ID": "2025-271K", "EPOCH": "2025-12-20T04:00:00.999072", "MEAN_MOTION": 15.39618729, "ECCENTRICITY": 0.0001342, "INCLINATION": 53.1601, "RA_OF_ASC_NODE": 151.9317, "ARG_OF_PERICENTER": 80.2674, "MEAN_ANOMALY": 309.3215, "EPHEMERIS_TYPE": 0, "CLASSIFICATION_TYPE": "U", "NORAD_CAT_ID": 66626, "ELEMENT_SET_NO": 999, "REV_AT_EPOCH": 543, "BSTAR": 5.7166e-05, "MEAN_MOTION_DOT": 1.888e-05, "MEAN_MOTION_DDOT": 0}, "tle": {"line1": "1 66626U 25271K   25354.16667823  .00001888  00000+0  57166-4 0  9994", "line2": "2 66626  53.1601 151.9317 0001342  80.2674 309.3215 15.39618729  5434"}}, "geometry": {"type": "Point", "coordinates": [127.07347613261078, -27.896245147847186]}}, {"type": "Feature", "properties": {"norad_id": 66627, "name": "STARLINK-35904", "group": "last-30-days", "lat": 12.509890275673987, "lon": 159.9304832981318, "alt_km": 446.1452112061206, "timestamp": "2025-12-20T11:30:27.104097+00:00", "meta": {"OBJECT_NAME": "STARLINK-35904", "OBJECT_ID": "2025-271L", "EPOCH": "2025-12-20T04:00:00.999072", "MEAN_MOTION": 15.39613256, "ECCENTRICITY": 8.76e-05, "INCLINATION": 53.1591, "RA_OF_ASC_NODE": 151.8292, "ARG_OF_PERICENTER": 81.9222, "MEAN_ANOMALY": 359.1702, "EPHEMERIS_TYPE": 0, "CLASSIFICATION_TYPE": "U", "NORAD_CAT_ID": 66627, "ELEMENT_SET_NO": 999, "REV_AT_EPOCH": 527, "BSTAR": 8.5588e-05, "MEAN_MOTION_DOT": 3.025e-05, "MEAN_MOTION_DDOT": 0}, "tle": {"line1": "1 66627U 25271L   25354.16667823  .00003025  00000+0  85588-4 0  9999", "line2": "2 66627  53.1591 151.8292 0000876  81.9222 359.1702 15.39613256  5278"}}, "geometry": {"type": "Point", "coordinates": [159.9304832981318, 12.509890275673987]}}, {"type": "Feature", "properties": {"norad_id": 66628, "name": "STARLINK-35862", "group": "last-30-days", "lat": 53.05636658264096, "lon": -115.3440753710486, "alt_km": 419.5659323185746, "timestamp": "2025-12-20T11:30:27.104110+00:00", "meta": {"OBJECT_NAME": "STARLINK-35862", "OBJECT_ID": "2025-271M", "EPOCH": "2025-12-19T22:41:57.757632", "MEAN_MOTION": 15.46540943, "ECCENTRICITY": 0.0002224, "INCLINATION": 53.1592, "RA_OF_ASC_NODE": 152.7424, "ARG_OF_PERICENTER": 62.1747, "MEAN_ANOMALY": 297.9486, "EPHEMERIS_TYPE": 0, "CLASSIFICATION_TYPE": "U", "NORAD_CAT_ID": 66628, "ELEMENT_SET_NO": 999, "REV_AT_EPOCH": 532, "BSTAR": -0.0077533, "MEAN_MOTION_DOT": -0.00373781, "MEAN_MOTION_DDOT": 0}, "tle": {"line1": "1 66628U 25271M   25353.94580738 -.00373781  00000+0 -77533-2 0  9994", "line2": "2 66628  53.1592 152.7424 0002224  62.1747 297.9486 15.46540943  5323"}}, "geometry": {"type": "Point", "coordinates": [-115.3440753710486, 53.05636658264096]}}, {"type": "Feature", "properties": {"norad_id": 66629, "name": "STARLINK-35956", "group": "last-30-days", "lat": 50.23047164741297, "lon": -94.09626973067984, "alt_km": 411.1146886462211, "timestamp": "2025-12-20T11:30:27.104123+00:00", "meta": {"OBJECT_NAME": "STARLINK-35956", "OBJECT_ID": "2025-271N", "EPOCH": "2025-12-18T16:00:00.999936", "MEAN_MOTION": 15.49463337, "ECCENTRICITY": 5.424e-05, "INCLINATION": 53.1591, "RA_OF_ASC_NODE": 158.846, "ARG_OF_PERICENTER": 63.7637, "MEAN_ANOMALY": 4.4961, "EPHEMERIS_TYPE": 0, "CLASSIFICATION_TYPE": "U", "NORAD_CAT_ID": 66629, "ELEMENT_SET_NO": 999, "REV_AT_EPOCH": 519, "BSTAR": 0.0002238515, "MEAN_MOTION_DOT": 0.00012088, "MEAN_MOTION_DDOT": 0}, "tle": {"line1": "1 66629U 25271N   25352.66667824  .00012088  00000+0  22385-3 0  9999", "line2": "2 66629  53.1591 158.8460 0000542  63.7637   4.4961 15.49463337  5194"}}, "geometry": {"type": "Point", "coordinates": [-94.09626973067984, 50.23047164741297]}}, {"type": "Feature", "properties": {"norad_id": 66630, "name": "STARLINK-35949", "group": "last-30-days", "lat": 52.497589785170504, "lon": -107.49538058935025, "alt_km": 418.22921804370526, "timestamp": "2025-12-20T11:30:27.104135+00:00", "meta": {"OBJECT_NAME": "STARLINK-35949", "OBJECT_ID": "2025-271P", "EPOCH": "2025-12-19T21:07:53.060736", "MEAN_MOTION": 15.46903837, "ECCENTRICITY": 0.0003221, "INCLINATION": 53.1593, "RA_OF_ASC_NODE": 153.0444, "ARG_OF_PERICENTER": 47.5604, "MEAN_ANOMALY": 312.5676, "EPHEMERIS_TYPE": 0, "CLASSIFICATION_TYPE": "U", "NORAD_CAT_ID": 66630, "ELEMENT_SET_NO": 999, "REV_AT_EPOCH": 531, "BSTAR": -0.005658, "MEAN_MOTION_DOT": -0.002797, "MEAN_MOTION_DDOT": 0}, "tle": {"line1": "1 66630U 25271P   25353.88047524 -.00279700  00000+0 -56580-2 0  9996", "line2": "2 66630  53.1593 153.0444 0003221  47.5604 312.5676 15.46903837  5319"}}, "geometry": {"type": "Point", "coordinates": [-107.49538058935025, 52.497589785170504]}}, {"type": "Feature", "properties": {"norad_id": 66631, "name": "STARLINK-35965", "group": "last-30-days", "lat": 52.5350900664252, "lon": -107.85399933895421, "alt_km": 422.0396235497192, "timestamp": "2025-12-20T11:30:27.104147+00:00", "meta": {"OBJECT_NAME": "STARLINK-35965", "OBJECT_ID": "2025-271Q", "EPOCH": "2025-12-20T04:00:00.999072", "MEAN_MOTION": 15.45533822, "ECCENTRICITY": 0.0001331, "INCLINATION": 53.1594, "RA_OF_ASC_NODE": 151.6796, "ARG_OF_PERICENTER": 53.7277, "MEAN_ANOMALY": 102.0878, "EPHEMERIS_TYPE": 0, "CLASSIFICATION_TYPE": "U", "NORAD_CAT_ID": 66631, "ELEMENT_SET_NO": 999, "REV_AT_EPOCH": 543, "BSTAR": 0.00041234, "MEAN_MOTION_DOT": 0.00019738, "MEAN_MOTION_DDOT": 0}, "tle": {"line1": "1 66631U 25271Q   25354.16667823  .00019738  00000+0  41234-3 0  9991", "line2": "2 66631  53.1594 151.6796 0001331  53.7277 102.0878 15.45533822  5431"}}, "geometry": {"type": "Point", "coordinates": [-107.85399933895421, 52.5350900664252]}}, {"type": "Feature", "properties": {"norad_id": 66632, "name": "STARLINK-35973", "group": "last-30-days", "lat": -53.04149619210259, "lon": 65.41275683965182, "alt_km": 452.5143386441723, "timestamp": "2025-12-20T11:30:27.104158+00:00", "meta": {"OBJECT_NAME": "STARLINK-35973", "OBJECT_ID": "2025-271R", "EPOCH": "2025-12-19T18:44:52.278432", "MEAN_MOTION": 15.39637359, "ECCENTRICITY": 9.834e-05, "INCLINATION": 53.1599, "RA_OF_ASC_NODE": 153.8489, "ARG_OF_PERICENTER": 75.4861, "MEAN_ANOMALY": 284.6253, "EPHEMERIS_TYPE": 0, "CLASSIFICATION_TYPE": "U", "NORAD_CAT_ID": 66632, "ELEMENT_SET_NO": 999, "REV_AT_EPOCH": 525, "BSTAR": 0.00082132207, "MEAN_MOTION_DOT": 0.00032612, "MEAN_MOTION_DDOT": 0}, "tle": {"line1": "1 66632U 25271R   25353.78116063  .00032612  00000+0  82132-3 0  9992", "line2": "2 66632  53.1599 153.8489 0000983  75.4861 284.6253 15.39637359  5259"}}, "geometry": {"type": "Point", "coordinates": [65.41275683965182, -53.04149619210259]}}]}